#dP2023 10 18 18  0  0.00000000      96 __u+U IGS20 EXT  IAC
## 2284 324000.00000000   900.00000000 60235 0.7500000000000
+  119   C06C07C08C09C10C11C12C13C14C16C19C20C21C22C23C24C25
+        C26C27C28C29C30C32C33C34C35C36C37C38C39C40C41C42C43
+        C44C45C46E02E03E04E05E07E08E09E10E11E12E13E14E15E19
+        E21E24E25E26E27E30E31E33E34E36G01G02G03G04G05G06G07
+        G08G09G10G11G12G13G14G15G16G17G18G19G20G21G22G23G24
+        G25G26G27G28G29G30G31G32J02J03J04R01R02R03R04R05R07
+        R08R09R11R12R13R14R15R16R17R18R19R20R21R22R24R25R26
++        10  9 11 10  9  8  8 10  9 10  7  9  9  9 10 10  9
++         8  9  9  7  7  7  8  9  8  9 10 11  8  9  8  7  7
++         7  8  7  6  7  7  6  7  6  8  7  8  7  8  7  8  7
++         7  8  8  7  7  7  7  7  8  7  6  7  7  8  8  7  7
++         8  8  7  8  8  8  8  6  7  6  7  7  6  9  7  7  8
++         8  8  7  6  7  8  7  8  9  8 10  9  7  7  7  7  8
++         8  9  8  7  6  7  7  8  7  7  9 10  8  9  7  9 10
%c M  cc GPS ccc cccc cccc cccc cccc ccccc ccccc ccccc ccccc
%c cc cc ccc ccc cccc cccc cccc cccc ccccc ccccc ccccc ccccc
%f  0.0000000  0.000000000  0.00000000000  0.000000000000000
%f  0.0000000  0.000000000  0.00000000000  0.000000000000000
%i    0    0    0    0      0      0      0      0         0
%i    0    0    0    0      0      0      0      0         0
/* IAC                                ULTRA-RAPID PREDICTION
/* S/V CLOCKS ARE ALIGNED TO GNSS TIME                      
/* G:C1WC2W R:C1PC2P E:C1XC5X C:C2IC6I J:C1CC2S             
/* PCV:IGS20_2280 OL/AL:FES2004  NONE     YN ORB:CoN CLK:CoN
*  2023 10 18 21 30  0.00000000
PC06 -10594.573095  23582.912001 -33310.760320     60.594202
PC07 -14501.418549  39340.970869   3379.105926   -179.324436
PC08   1079.635935  32123.801607  27402.564143    289.481956
PC09  -2656.166498  24131.594383 -34060.224055     24.518014
PC10  -7472.828007  39847.995831  10859.178104     14.295643
PC11   4777.399414  14746.072904  23280.160094    210.509273
PC12 -16014.262530  15265.871780  17042.675580    892.369958
PC13   5808.666425  35360.913331  22599.790978    369.594397
PC14   1688.989580  24963.803212 -12299.335322    612.771088
PC16 -16758.717690  21666.948637 -31898.280578   -132.275523
PC19  -8144.615671 -18707.760428  19059.322201   -972.413516
PC20   3979.538229 -27128.672003   5259.092668    192.260465
PC21 -14792.142318  19782.479440  12973.196383   -969.305295
PC22 -16259.141135    933.780457  22646.730804   -260.997797
PC23  22621.162199   9571.829757  13257.140433   -841.440518
PC24   2058.087523  21025.469994 -18259.797739    507.638602
PC25  18378.358190  20833.549232  -2775.488545    235.839424
PC26 -13656.862121   9274.300663 -22512.301771   -193.620388
PC27  22740.925673 -12692.353135 -10035.247647    215.380641
PC28  27164.027400  -2239.718482   6015.724786    162.119688
PC29 -15353.005929 -10718.831105 -20691.724123    189.522747
PC30   5920.047875 -17131.767116 -21217.480952     -6.737260
PC32  14676.221370 -19822.992437 -13054.234380   -530.332015
PC33   8217.637142  18740.221570 -18975.100420   -952.954218
PC34  -4319.808344  17048.697643  21661.149063    284.024570
PC35 -27088.713771   3283.108700  -5937.475955    522.364367
PC36 -17361.010181 -21544.234789   3599.714268   -173.741386
PC37  14483.385995  -8222.482062  22405.477851   -857.563072
PC38  -6320.396505  27784.033330  31173.340412    112.004742
PC39 -21050.931364  21432.192683 -29653.266237     -5.291447
PC40 -21420.583095  36135.605756   1195.202326    -40.626340
PC41  16129.285920   -152.837815 -22727.828550   -872.623159
PC42  -4962.074317  27189.618391  -3741.458063   -518.793875
PC43  14497.545128  11334.776753  20967.404990     44.534114
PC44 -22385.309991  13507.244106   9783.476204    265.744727
PC45 -22479.914060  -9147.622695 -13750.550538    -37.421773
PC46  -3174.505605 -21381.886955  17622.107263    -92.887972
PE02   7201.850454 -23270.933457  16805.039800     71.249069
PE03  17491.987993 -22628.469789   7632.161556    -66.121988
PE04     99.823246  20187.030722 -21649.906603   -237.335092
PE05  24864.440323 -11932.599583 -10752.446828     28.734688
PE07 -17450.095628  -6185.181991  23091.303447    -82.860344
PE08    485.190456 -20334.871251  21498.969659   -163.441167
PE09  17277.077053   6187.033397 -23232.519814   -196.166345
PE10  19850.989384  16443.364491  14560.089666   -572.165785
PE11  26510.800456  12226.855302   4871.279385   3107.081800
PE12  10754.579906  17907.425093  20968.538766   -741.858735
PE13 -26214.198792 -12548.881806  -5598.117583    -19.659299
PE14  20152.528485   3027.060602  17467.446441    372.468426
PE15 -10309.446735 -17827.736063 -21252.240839    -62.279838
PE19 -19253.513203  21839.313794  -5357.909873  -1397.568992
PE21 -16070.243578   5033.427187 -24339.604248   -559.208278
PE24  15908.304896  17624.698082  17682.634855   -383.003178
PE25  16177.326384  -4595.337264  24367.926522     -3.442397
PE26 -26267.943401    553.951454  13627.394494    255.154046
PE27 -16082.031473 -17037.805632 -18076.757065   -177.859388
PE30  -6289.193435 -28902.819309   -882.094305   -590.559168
PE31   6633.650965  28824.149731   1254.591427     -7.967848
PE33 -12014.282516  12293.175008  24098.865111      0.584545
PE34  11390.688523 -12615.311580 -24239.039946    -73.114251
PE36  26550.723199     17.721861 -13085.066351   -131.762732
PG01 -19729.282660 -14746.332707 -10713.828521    163.594367
PG02 -15480.611345 -14837.828192 -15289.166673   -540.357315
PG03 -12104.743466 -20311.215122  12058.405184    -70.732008
PG04 -12649.206102  -9046.668258  21550.808475    188.218523
PG05   5466.370232  25905.974359   1142.268378   -147.015525
PG06 -15264.216136   8535.479794  20087.359241    527.558074
PG07 -25748.882052  -5372.209150  -4738.479344     36.840145
PG08  -4134.490218 -16071.608760 -20727.850314   -147.791651
PG09 -19575.230385    750.166554  17874.565311    -28.626924
PG10  11963.524451 -11092.303631 -20698.472178    -57.876491
PG11  -2269.461586  15223.943795  21667.160060   -421.147358
PG12   9643.462899  22625.061744   9850.597088   -437.344363
PG13  -6582.063736  18737.784405 -17728.812799    585.511341
PG14 -14210.306710   7330.025370 -21162.328338    217.878739
PG15   7219.663797  15338.395894 -20892.724563     88.411782
PG16   1282.181781 -25605.690649   5637.600736   -436.958154
PG17 -22626.848816  12874.282949  -5136.530943    723.806193
PG18  25294.446131   3905.026943  -7437.647059   -452.883613
PG19 -20438.066347  16424.129150   2645.291197    386.786372
PG20  -1098.535044  23258.431888  12992.240123    406.139482
PG21 -12738.110345 -15588.701010 -17260.897563    146.456129
PG22 -11372.666313  14967.820468 -18420.287613    100.399579
PG23  15487.940347   2929.887992 -21397.277362     84.734650
PG24  16698.875718  15258.260256 -14637.163128   -349.486143
PG25  15545.034915  11253.963818  18154.539361    473.348937
PG26   5990.472014 -20746.897451  15100.018527    222.385191
PG27   8594.635808 -20644.412218 -14257.259489    -57.130154
PG28  16938.773939  -8382.081923  18639.259092    -28.039604
PG29  19465.393212    832.275980  18055.521315   -610.116770
PG30 -22457.776377   2988.914926 -13951.222506   -477.285855
PG31   8369.563031 -13055.287628  21399.524822   -224.804307
PG32  20686.228590 -16318.601807  -2095.313941   -574.465213
PJ02 -20237.568354  28859.734133 -18596.582282     -5.930343
PJ03 -29952.426187  23653.623992  23014.656430     -5.478680
PJ04 -29901.500682  28178.825025  15495.682029     71.323379
PR01  10457.803734   3536.134597 -23001.575391     67.952779
PR02  14978.618704 -13796.549710 -15275.423034    -22.381100
PR03  10736.909548 -23068.941805   1236.635549     87.330160
PR04   1036.380760 -19280.771555  16678.908392    207.404213
PR05  -9414.096403  -5195.326517  23134.879376    120.840627
PR07 -10456.196453  23213.860804  -1973.364646     67.151598
PR08   -780.043513  19264.443101 -16671.888628    -72.986396
PR09 -12436.860558   1493.824194 -22212.705707    148.375797
PR11  10939.199683  21887.305420  -7168.345802   -201.070891
PR12  16974.488073  14884.031325  11915.880404     32.488401
PR13  13287.825710    836.630028  21745.982826    -40.342765
PR14    480.525553 -16197.906236  19719.166421     25.427709
PR15 -11485.141471 -22021.667515   5847.107272     85.274871
PR16 -16995.705280 -15069.929586 -11629.824841     19.774386
PR17  11312.772193 -10043.912021 -20539.814345     26.966287
PR18  -6842.638851  -9821.398461 -22511.247565    107.516622
PR19 -20341.947997  -5934.654488 -14186.119165   -251.384556
PR20 -24536.765863   3200.468285   6273.463214   -102.041856
PR21 -10471.515132  10024.298089  20983.024828    -46.577273
PR22   7555.094178  10298.010937  22108.137371     89.311297
PR24  24193.541084  -4501.602159  -6740.736983    -28.726729
PR25 -11658.437852   9832.768785  20446.456113     -5.519752
PR26   -949.179727  19524.763262 -16362.705707    -20.170520
EOF
